{
    "links": {
        "self": "http://www.neowsapp.com/rest/v1/neo/3760678?api_key=iIulBulltgU6a56xZRHN4H3l9WmuAYTsLGpBGhQ2"
    },
    "id": "3760678",
    "neo_reference_id": "3760678",
    "name": "(2016 TW19)",
    "designation": "2016 TW19",
    "nasa_jpl_url": "http://ssd.jpl.nasa.gov/sbdb.cgi?sstr=3760678",
    "absolute_magnitude_h": 25.3,
    "estimated_diameter": {
        "kilometers": {
            "estimated_diameter_min": 0.0231502122,
            "estimated_diameter_max": 0.0517654482
        },
        "meters": {
            "estimated_diameter_min": 23.150212221,
            "estimated_diameter_max": 51.7654482198
        },
        "miles": {
            "estimated_diameter_min": 0.0143848705,
            "estimated_diameter_max": 0.0321655483
        },
        "feet": {
            "estimated_diameter_min": 75.9521422633,
            "estimated_diameter_max": 169.8341531374
        }
    },
    "is_potentially_hazardous_asteroid": false,
    "close_approach_data": [
        {
            "close_approach_date": "1902-12-03",
            "close_approach_date_full": "1902-Dec-03 13:14",
            "epoch_date_close_approach": -2116838760000,
            "relative_velocity": {
                "kilometers_per_second": "17.2673426216",
                "kilometers_per_hour": "62162.4334376628",
                "miles_per_hour": "38625.3187101966"
            },
            "miss_distance": {
                "astronomical": "0.430513047",
                "lunar": "167.469575283",
                "kilometers": "64403834.83840989",
                "miles": "40018687.277400882"
            },
            "orbiting_body": "Earth"
        },
        {
            "close_approach_date": "2016-10-18",
            "close_approach_date_full": "2016-Oct-18 23:09",
            "epoch_date_close_approach": 1476832140000,
            "relative_velocity": {
                "kilometers_per_second": "5.7747585615",
                "kilometers_per_hour": "20789.1308215252",
                "miles_per_hour": "12917.5574262971"
            },
            "miss_distance": {
                "astronomical": "0.0851457482",
                "lunar": "33.1216960498",
                "kilometers": "12737622.570276334",
                "miles": "7914791.6514040492"
            },
            "orbiting_body": "Earth"
        }
    ],
    "orbital_data": {
        "orbit_id": "7",
        "orbit_determination_date": "2017-04-06 08:23:09",
        "first_observation_date": "2016-10-09",
        "last_observation_date": "2016-12-01",
        "data_arc_in_days": 53,
        "observations_used": 41,
        "orbit_uncertainty": "6",
        "minimum_orbit_intersection": ".0896854",
        "jupiter_tisserand_invariant": "3.404",
        "epoch_osculation": "2459000.5",
        "eccentricity": ".5261970572233861",
        "semi_major_axis": "2.284709768462491",
        "inclination": ".6640981842221352",
        "ascending_node_longitude": "130.4648798298584",
        "orbital_period": "1261.37722341396",
        "perihelion_distance": "1.082502211688005",
        "perihelion_argument": "263.0992546777155",
        "aphelion_distance": "3.486917325236977",
        "perihelion_time": "2458948.447484647159",
        "mean_anomaly": "14.85590922302008",
        "mean_motion": ".2854023311326709",
        "equinox": "J2000",
        "orbit_class": {
            "orbit_class_type": "AMO",
            "orbit_class_description": "Near-Earth asteroid orbits similar to that of 1221 Amor",
            "orbit_class_range": "1.017 AU < q (perihelion) < 1.3 AU"
        }
    },
    "is_sentry_object": false
}